{
  "type": "FeatureCollection",
  "features": [
    {
      "type": "Feature",
      "properties": {
        "norad_id": 32393,
        "name": "COSMOS 2434 (721)",
        "group": "gnss",
        "lat": -64.05580192806978,
        "lon": 116.06222263716046,
        "alt_km": 19147.96391174487,
        "timestamp": "2025-12-25T07:41:09.965621+00:00",
        "meta_object_name": "COSMOS 2434 (721)",
        "meta_object_id": "2007-065A",
        "meta_epoch": "2025-12-24T05:14:54.087648",
        "meta_mean_motion": 2.13101448,
        "meta_eccentricity": 0.00048186,
        "meta_inclination": 64.3158,
        "meta_ra_of_asc_node": 197.8158,
        "meta_arg_of_pericenter": 72.4186,
        "meta_mean_anomaly": 76.1522,
        "meta_ephemeris_type": 0,
        "meta_classification_type": "U",
        "meta_norad_cat_id": 32393,
        "meta_element_set_no": 999,
        "meta_rev_at_epoch": 14004,
        "meta_bstar": 0,
        "meta_mean_motion_dot": 9.8e-07,
        "meta_mean_motion_ddot": 0,
        "tle_line1": "1 32393U 07065A   25358.21868157  .00000098  00000+0  00000+0 0  9994",
        "tle_line2": "2 32393  64.3158 197.8158 0004818  72.4186  76.1522  2.13101448140043"
      },
      "geometry": {
        "type": "Point",
        "coordinates": [
          116.06222263716046,
          -64.05580192806978
        ]
      }
    },
    {
      "type": "Feature",
      "properties": {
        "norad_id": 32395,
        "name": "COSMOS 2436 (723)",
        "group": "gnss",
        "lat": 41.026249097604264,
        "lon": -137.39133911418048,
        "alt_km": 19088.744327058463,
        "timestamp": "2025-12-25T07:41:09.965633+00:00",
        "meta_object_name": "COSMOS 2436 (723)",
        "meta_object_id": "2007-065C",
        "meta_epoch": "2025-12-23T14:51:15.098400",
        "meta_mean_motion": 2.13100222,
        "meta_eccentricity": 0.00178112,
        "meta_inclination": 64.3245,
        "meta_ra_of_asc_node": 197.9064,
        "meta_arg_of_pericenter": 10.214,
        "meta_mean_anomaly": 171.2752,
        "meta_ephemeris_type": 0,
        "meta_classification_type": "U",
        "meta_norad_cat_id": 32395,
        "meta_element_set_no": 999,
        "meta_rev_at_epoch": 13998,
        "meta_bstar": 0,
        "meta_mean_motion_dot": 9.6e-07,
        "meta_mean_motion_ddot": 0,
        "tle_line1": "1 32395U 07065C   25357.61892475  .00000096  00000+0  00000+0 0  9997",
        "tle_line2": "2 32395  64.3245 197.9064 0017811  10.2140 171.2752  2.13100222139988"
      },
      "geometry": {
        "type": "Point",
        "coordinates": [
          -137.39133911418048,
          41.026249097604264
        ]
      }
    },
    {
      "type": "Feature",
      "properties": {
        "norad_id": 32711,
        "name": "GPS BIIRM-6 (PRN 07)",
        "group": "gnss",
        "lat": 40.268517965412585,
        "lon": -60.374607515109886,
        "alt_km": 20419.13140788853,
        "timestamp": "2025-12-25T07:41:09.965645+00:00",
        "meta_object_name": "GPS BIIRM-6 (PRN 07)",
        "meta_object_id": "2008-012A",
        "meta_epoch": "2025-12-24T15:20:51.280224",
        "meta_mean_motion": 2.00566104,
        "meta_eccentricity": 0.02029745,
        "meta_inclination": 54.4784,
        "meta_ra_of_asc_node": 156.898,
        "meta_arg_of_pericenter": 245.0885,
        "meta_mean_anomaly": 112.7759,
        "meta_ephemeris_type": 0,
        "meta_classification_type": "U",
        "meta_norad_cat_id": 32711,
        "meta_element_set_no": 999,
        "meta_rev_at_epoch": 13025,
        "meta_bstar": 0,
        "meta_mean_motion_dot": 9.3e-07,
        "meta_mean_motion_ddot": 0,
        "tle_line1": "1 32711U 08012A   25358.63948241  .00000093  00000+0  00000+0 0  9995",
        "tle_line2": "2 32711  54.4784 156.8980 0202974 245.0885 112.7759  2.00566104130258"
      },
      "geometry": {
        "type": "Point",
        "coordinates": [
          -60.374607515109886,
          40.268517965412585
        ]
      }
    },
    {
      "type": "Feature",
      "properties": {
        "norad_id": 35752,
        "name": "GPS BIIRM-8 (PRN 05)",
        "group": "gnss",
        "lat": 24.653807676624034,
        "lon": -163.6674542747155,
        "alt_km": 20127.30743725528,
        "timestamp": "2025-12-25T07:41:09.965657+00:00",
        "meta_object_name": "GPS BIIRM-8 (PRN 05)",
        "meta_object_id": "2009-043A",
        "meta_epoch": "2025-12-24T04:14:37.985856",
        "meta_mean_motion": 2.00564964,
        "meta_eccentricity": 0.00515883,
        "meta_inclination": 56.0988,
        "meta_ra_of_asc_node": 34.3322,
        "meta_arg_of_pericenter": 81.7352,
        "meta_mean_anomaly": 321.9432,
        "meta_ephemeris_type": 0,
        "meta_classification_type": "U",
        "meta_norad_cat_id": 35752,
        "meta_element_set_no": 999,
        "meta_rev_at_epoch": 11985,
        "meta_bstar": 0,
        "meta_mean_motion_dot": -5.1e-07,
        "meta_mean_motion_ddot": 0,
        "tle_line1": "1 35752U 09043A   25358.17682854 -.00000051  00000+0  00000+0 0  9997",
        "tle_line2": "2 35752  56.0988  34.3322 0051588  81.7352 321.9432  2.00564964119854"
      },
      "geometry": {
        "type": "Point",
        "coordinates": [
          -163.6674542747155,
          24.653807676624034
        ]
      }
    },
    {
      "type": "Feature",
      "properties": {
        "norad_id": 36111,
        "name": "COSMOS 2456 (730)",
        "group": "gnss",
        "lat": 58.805072612983736,
        "lon": 127.52617743181715,
        "alt_km": 19129.942542004854,
        "timestamp": "2025-12-25T07:41:09.965670+00:00",
        "meta_object_name": "COSMOS 2456 (730)",
        "meta_object_id": "2009-070A",
        "meta_epoch": "2025-12-24T09:16:29.146080",
        "meta_mean_motion": 2.13103739,
        "meta_eccentricity": 0.00036447,
        "meta_inclination": 64.9059,
        "meta_ra_of_asc_node": 76.94,
        "meta_arg_of_pericenter": 294.9884,
        "meta_mean_anomaly": 139.4332,
        "meta_ephemeris_type": 0,
        "meta_classification_type": "U",
        "meta_norad_cat_id": 36111,
        "meta_element_set_no": 999,
        "meta_rev_at_epoch": 12470,
        "meta_bstar": 0,
        "meta_mean_motion_dot": -1e-08,
        "meta_mean_motion_ddot": 0,
        "tle_line1": "1 36111U 09070A   25358.38644845 -.00000001  00000+0  00000+0 0  9993",
        "tle_line2": "2 36111  64.9059  76.9400 0003644 294.9884 139.4332  2.13103739124702"
      },
      "geometry": {
        "type": "Point",
        "coordinates": [
          127.52617743181715,
          58.805072612983736
        ]
      }
    },
    {
      "type": "Feature",
      "properties": {
        "norad_id": 36112,
        "name": "COSMOS 2457 (733)",
        "group": "gnss",
        "lat": -17.933223623279915,
        "lon": -94.51603174698658,
        "alt_km": 19123.568469974845,
        "timestamp": "2025-12-25T07:41:09.965681+00:00",
        "meta_object_name": "COSMOS 2457 (733)",
        "meta_object_id": "2009-070B",
        "meta_epoch": "2025-12-23T15:49:23.328192",
        "meta_mean_motion": 2.13101141,
        "meta_eccentricity": 0.00045057,
        "meta_inclination": 64.8913,
        "meta_ra_of_asc_node": 76.812,
        "meta_arg_of_pericenter": 162.7292,
        "meta_mean_anomaly": 202.8862,
        "meta_ephemeris_type": 0,
        "meta_classification_type": "U",
        "meta_norad_cat_id": 36112,
        "meta_element_set_no": 999,
        "meta_rev_at_epoch": 12469,
        "meta_bstar": 0,
        "meta_mean_motion_dot": -1e-08,
        "meta_mean_motion_ddot": 0,
        "tle_line1": "1 36112U 09070B   25357.65929778 -.00000001  00000+0  00000+0 0  9994",
        "tle_line2": "2 36112  64.8913  76.8120 0004505 162.7292 202.8862  2.13101141124697"
      },
      "geometry": {
        "type": "Point",
        "coordinates": [
          -94.51603174698658,
          -17.933223623279915
        ]
      }
    },
    {
      "type": "Feature",
      "properties": {
        "norad_id": 36402,
        "name": "COSMOS 2460 (732)",
        "group": "gnss",
        "lat": -17.725143010736875,
        "lon": 148.7000226256945,
        "alt_km": 19131.709967557,
        "timestamp": "2025-12-25T07:41:09.965694+00:00",
        "meta_object_name": "COSMOS 2460 (732)",
        "meta_object_id": "2010-007C",
        "meta_epoch": "2025-12-24T05:56:36.176352",
        "meta_mean_motion": 2.1310636,
        "meta_eccentricity": 0.00024969,
        "meta_inclination": 65.5233,
        "meta_ra_of_asc_node": 320.3848,
        "meta_arg_of_pericenter": 284.0836,
        "meta_mean_anomaly": 172.5466,
        "meta_ephemeris_type": 0,
        "meta_classification_type": "U",
        "meta_norad_cat_id": 36402,
        "meta_element_set_no": 999,
        "meta_rev_at_epoch": 12300,
        "meta_bstar": 0,
        "meta_mean_motion_dot": -3.3e-07,
        "meta_mean_motion_ddot": 0,
        "tle_line1": "1 36402U 10007C   25358.24764093 -.00000033  00000+0  00000+0 0  9996",
        "tle_line2": "2 36402  65.5233 320.3848 0002496 284.0836 172.5466  2.13106360123000"
      },
      "geometry": {
        "type": "Point",
        "coordinates": [
          148.7000226256945,
          -17.725143010736875
        ]
      }
    }
  ]
}